SUOMI NPP               
1 37849U 11061A   26155.93498583  .00000102  00000+0  69365-4 0  9993
2 37849  98.7951  96.8950 0002176  33.1193 327.0119 14.19514779756701
YAOGAN-12               
1 37875U 11066B   26155.94224656  .00007515  00000+0  29078-3 0  9997
2 37875  97.1147 195.0867 0007980 269.2698  90.7627 15.26439894810172
BEIDOU-2 M4             
1 38251U 12018B   26155.23396757 -.00000059  00000+0  00000+0 0  9995
2 38251  55.6701 304.5261 0011084 278.0259  81.8322  1.86229800 95704
ARIRANG-3 (KOMPSAT-3)   
1 38338U 12025B   26155.98888043  .00000534  00000+0  11531-3 0  9997
2 38338  98.1171 113.6599 0006092 141.0373 219.1269 14.62195294749568
METOP-B                 
1 38771U 12049A   26155.94152119  .00000132  00000+0  80185-4 0  9994
2 38771  98.6509 207.6845 0002896  47.3983 312.7438 14.21429368711520
SJ-9A                   
1 38860U 12056A   26155.90485901  .00001240  00000+0  14926-3 0  9995
2 38860  97.6702 128.3015 0024182 299.8033  60.0778 14.85448839697766
COSMOS 2484 (RODNIK-S 6)
1 39059U 13001C   26155.91105447  .00000036  00000+0  18928-3 0  9990
2 39059  82.5024 229.5240 0027289  62.6942 297.6912 12.42938638607038
SARAL                   
1 39086U 13009A   26155.89036120  .00000083  00000+0  46370-4 0  9991
2 39086  98.5558 342.6136 0001410   2.5451 357.5740 14.32852909693840
STRAND-1                
1 39090U 13009E   26155.03670315  .00000293  00000+0  11292-3 0  9999
2 39090  98.3918 335.5952 0007387 270.6143  89.4198 14.37155097695170
BRITE-AUSTRIA           
1 39091U 13009F   26155.74043161  .00000204  00000+0  84090-4 0  9990
2 39091  98.3992 335.4846 0008968 278.5862  81.4309 14.36537037695268
GAOFEN-1                
1 39150U 13018A   26155.93263637 -.00000213  00000+0 -23127-4 0  9995
2 39150  97.9095 228.2488 0016081 309.6328  50.3463 14.76521379706436
NEE-01 PEGASO           
1 39151U 13018B   26154.46520451  .00003190  00000+0  30780-3 0  9990
2 39151  98.1207 298.1637 0012177 203.9081 156.1574 14.93586684708654
PROBA-V                 
1 39159U 13021A   26155.46788589  .00000088  00000+0  56508-4 0  9991
2 39159  98.3578 134.7029 0004546 154.6484 205.4920 14.23594218679302
ARIRANG-5 (KOMPSAT-5)   
1 39227U 13042A   26155.92848488  .00002642  00000+0  19279-3 0  9997
2 39227  97.6201 342.8007 0003754 155.3717 204.7689 15.04545315702011
GONETS-M 5              
1 39249U 13048A   26155.95989013  .00000056  00000+0  33415-3 0  9995
2 39249  82.4829 351.0070 0015694 238.6846 121.2698 12.42891659577364
GONETS-M 7              
1 39251U 13048C   26155.92307134  .00000040  00000+0  22150-3 0  9990
2 39251  82.4897 353.9458 0016485 240.1189 119.8253 12.42914400577315
FENGYUN 3C              
1 39260U 13052A   26155.95863330  .00000116  00000+0  79873-4 0  9992
2 39260  98.4980 130.3955 0015754  60.7894 299.4854 14.15752193656839
CASSIOPE                
1 39265U 13055A   26155.88932593  .00039655 -60914-6  43883-3 0  9999
2 39265  80.9143  81.6408 0296871 103.6552 259.7922 15.24079432665790
APRIZESAT 7             
1 39416U 13066A   26154.46842510  .00001374  00000+0  14142-3 0  9996
2 39416  97.7702 107.8862 0034277 256.3956 103.3444 14.91532678679184
ZACUBE-1 (TSHEPISOSAT)  
1 39417U 13066B   26154.94254392  .00004510  00000+0  35148-3 0  9999
2 39417  97.8107 117.2078 0039903 294.5657  65.1411 15.01095965678747
APRIZESAT 8             
1 39425U 13066K   26155.09268803  .00001269  00000+0  14319-3 0  9992
2 39425  97.8216 102.7439 0045204 330.7670  29.1018 14.87624717677722
